{"spkid": "54397460", "covariance": {"data": [["2.732109897556609E-13", "-2.175151349687581E-13", "2.632504914365795E-11", "1.932616163398183E-12", "3.861604189407307E-12", "4.093858866410999E-12"], ["-2.175151349687581E-13", "1.731998950644333E-13", "-2.087400983334752E-11", "-1.506168188789423E-12", "-3.053991713264036E-12", "-3.266751341999199E-12"], ["2.632504914365795E-11", "-2.087400983334752E-11", "2.926977809629683E-9", "3.287033088792788E-10", "4.966306951981046E-10", "3.665058321781363E-10"], ["1.932616163398183E-12", "-1.506168188789423E-12", "3.287033088792788E-10", "1.483771640899856E-10", "-1.084379117245201E-11", "2.296787741399841E-11"], ["3.861604189407307E-12", "-3.053991713264036E-12", "4.966306951981046E-10", "-1.084379117245201E-11", "1.82578991844125E-10", "4.581734131724728E-11"], ["4.093858866410999E-12", "-3.266751341999199E-12", "3.665058321781363E-10", "2.296787741399841E-11", "4.581734131724728E-11", "7.848342446183574E-11"]], "elements": [{"label": "e", "name": "e", "sigma": 5.22695886492003e-07, "value": ".1507560284194007", "title": "eccentricity", "units": null}, {"units": "au", "title": "perihelion distance", "value": ".8768134451392521", "sigma": 4.16172914861639e-07, "name": "q", "label": "q"}, {"value": "2460707.969873326062", "title": "time of perihelion passage", "units": "TDB", "sigma": 5.41015508985619e-05, "name": "tp", "label": "tp"}, {"label": "node", "name": "om", "sigma": 1.21810165458383e-05, "units": "deg", "title": "longitude of the ascending node", "value": "30.48720917245986"}, {"label": "peri", "units": "deg", "title": "argument of perihelion", "value": "93.38267027119164", "name": "w", "sigma": 1.35121793891335e-05}, {"name": "i", "sigma": 8.85908711221623e-06, "title": "inclination", "value": "4.168435989042712", "units": "deg", "label": "i"}], "labels": ["e", "q", "tp", "node", "peri", "i"], "epoch": "2460562.5"}, "elements": [{"name": "e", "sigma": "5.2254E-7", "title": "eccentricity", "value": ".150662662461316", "units": null, "label": "e"}, {"label": "a", "title": "semi-major axis", "value": "1.031926136440207", "units": "au", "sigma": "1.4589E-7", "name": "a"}, {"value": ".8764533972607063", "title": "perihelion distance", "units": "au", "name": "q", "sigma": "4.1538E-7", "label": "q"}, {"units": "deg", "value": "4.169181973774701", "title": "inclination; angle with respect to x-y ecliptic plane", "name": "i", "sigma": "8.8464E-6", "label": "i"}, {"label": "node", "name": "om", "sigma": "1.2649E-5", "units": "deg", "title": "longitude of the ascending node", "value": "30.34244569739848"}, {"label": "peri", "title": "argument of perihelion", "value": "93.06178281944689", "units": "deg", "sigma": "1.4975E-5", "name": "w"}, {"label": "M", "units": "deg", "value": "103.5703747397188", "title": "mean anomaly", "sigma": ".00015178", "name": "ma"}, {"units": "TDB", "value": "2461090.344955004898", "title": "time of perihelion passage", "name": "tp", "sigma": ".00013824", "label": "tp"}, {"units": "d", "title": "sidereal orbital period", "value": "382.8876384573774", "sigma": "8.1195E-5", "name": "per", "label": "period"}, {"name": "n", "sigma": "1.9938E-7", "units": "deg/d", "value": ".9402236161251122", "title": "mean motion", "label": "n"}, {"label": "Q", "value": "1.187398875619708", "title": "aphelion distance", "units": "au", "sigma": "1.6787E-7", "name": "ad"}], "epoch": "2461200.5"}